MOLNIYA 2-9             
1 07276U 74026A   20110.72729601 -.00000041  00000-0 -32863-3 0  9991
2 07276  64.0017 349.9007 6814547 288.2851  12.6229  2.45095010230051
MOLNIYA 2-10            
1 07376U 74056A   20108.39672351  .00001194  00000-0  00000+0 0  9996
2 07376  63.5218 174.6855 6745832 292.7942  11.8565  2.01104815334497
MOLNIYA 1-S             
1 07392U 74060A   20112.07919068 -.00000096  00000-0  00000+0 0  9999
2 07392   7.0164 294.2855 0008370 176.4567 203.2104  1.00198758111611
MOLNIYA 1-29            
1 07780U 75036A   20112.61531266 -.00000353  00000-0 -11148-2 0  9999
2 07780  62.9347 320.2170 7393555 287.9252   9.2440  2.00640004329865
MOLNIYA 2-14            
1 08195U 75081A   20112.35944780 -.00000857  00000-0  38026-2 0  9992
2 08195  63.0586 286.9928 7309971 292.7328   8.6494  2.02057637327045
MOLNIYA 1-32            
1 08601U 76006A   20109.11791615  .00000404  00000-0 -96673-3 0  9990
2 08601  62.6257  59.5578 7399554 278.4003  11.5229  2.00086239 36908
MOLNIYA 1-36            
1 09880U 77021A   20110.70618244 -.00001545  00000-0  81244-4 0  9997
2 09880  62.4503  31.0441 7484720 283.8349   9.7879  2.00676133213586
MOLNIYA 3-8             
1 10455U 77105A   20112.00611100 -.00000942  00000-0 -17331-2 0  9994
2 10455  62.3162 119.0171 7245654 276.0149  13.1457  2.00763913311264
MOLNIYA 1-40            
1 10925U 78055A   20109.17430210  .00000172  00000-0 -31065-1 0  9999
2 10925  62.5130 154.4431 7045496 278.0069  13.9855  2.00723819306838
MOLNIYA 3-10            
1 11057U 78095A   20111.87674673  .00000076  00000-0  13082-4 0  9997
2 11057  62.7855 339.2956 5961371 297.5177  14.9155  4.09619178351465
MOLNIYA 3-13            
1 11896U 80063A   20108.39815131 -.00000007  00000-0 -16307-3 0  9993
2 11896  62.5915 237.2235 7181285 275.3974  13.7319  2.00667703291274
MOLNIYA 1-49            
1 12156U 81009A   20110.21813168  .00001109  00000-0  29899-3 0  9998
2 12156  62.1776 282.7211 7231671 251.8118  22.7952  2.05692718205286
MOLNIYA 1-52            
1 13012U 81123A   20109.90298597  .00001096  00000-0  00000+0 0  9998
2 13012  63.5223  35.6877 7239717 248.5187  24.6776  2.00475753280800
MOLNIYA 1-53            
1 13070U 82015A   20111.57961944 -.00001353  00000-0  13736-3 0  9993
2 13070  62.3328 330.1303 7477613 275.3081  11.6202  2.00422671279443
MOLNIYA 3-20            
1 13875U 83015A   20109.53449187  .00001470  00000-0  39897-1 0  9993
2 13875  63.5349 108.1253 7120162 255.6033 320.0791  2.00650475207852
MOLNIYA 1-56            
1 13890U 83019A   20110.30045064  .00000764  00000-0  00000-0 0  9995
2 13890  63.2322 132.9232 7098370 260.4208  19.8905  1.99944906270832
MOLNIYA 1-62            
1 15214U 84089A   20109.18460230  .00001487  00000-0  93424-2 0  9992
2 15214  62.7190 141.2789 7256854 264.5721  16.7958  1.97931058228614
MOLNIYA 1-63            
1 15429U 84124A   20111.95531475  .00000207  00000-0  00000-0 0  9993
2 15429  63.6980 241.1019 6611858 266.7986  54.9572  2.00332370258964
MOLNIYA 3-24            
1 15738U 85040A   20110.86326492  .00000115  00000-0  61931-2 0  9994
2 15738  63.8586 214.7425 6465039 252.5734 345.0184  2.55629231283742
MOLNIYA 3-27            
1 16393U 85117A   20106.38277931  .00000094  00000-0  00000+0 0  9995
2 16393  64.6562 171.6558 6523170 257.7804  27.1714  2.12399982257352
MOLNIYA 1-69            
1 17078U 86089A   20112.09912153  .00000847  00000-0  77647-3 0  9993
2 17078  64.1432 262.1615 6732313 266.5417 341.2687  2.00745698245030
MOLNIYA 3-31            
1 17328U 87008A   20109.33990305  .00000267  00000-0  00000-0 0  9993
2 17328  63.8320 211.4931 6695037 261.1011  23.5821  2.00658091240013
MOLNIYA 1-71            
1 18946U 88017A   20108.33898243 -.00000114  00000-0 -27249-1 0  9996
2 18946  63.5208 212.6006 6822784 261.6710  36.3305  2.00593623235225
MOLNIYA 1-75            
1 19807U 89014A   20108.92269174  .00001336  00000-0  13587-1 0  9996
2 19807  64.3069  18.8850 7051873 271.6869  15.9788  2.00338316228225
MOLNIYA 1-80            
1 21118U 91012A   20111.28543973 -.00000420  00000-0  00000-0 0  9999
2 21118  64.2856  63.1446 6859610 286.5119  12.8324  2.05242888214823
MOLNIYA 3-40            
1 21196U 91022A   20110.20328572 -.00000142  00000-0  00000+0 0  9993
2 21196  64.4594  56.2283 6896145 283.4960  13.4440  2.02996731213630
MOLNIYA 1-81            
1 21426U 91043A   20109.96899738  .00000072  00000-0  00000+0 0  9991
2 21426  63.9933  82.9508 6978932 272.2928  16.3340  2.00628870211316
MOLNIYA 3-41            
1 21706U 91065A   20112.08588529  .00000800  00000-0  71821-2 0  9997
2 21706  64.1940 248.1243 6777633 265.1583  48.7084  2.04351920210825
MOLNIYA 3-42            
1 22178U 92067A   20111.80549681 -.00000105  00000-0  00000-0 0  9997
2 22178  64.7282 306.7104 6764554 278.2408  15.7899  2.20432589207159
MOLNIYA 1-86            
1 22671U 93035A   20112.85459245  .00000004  00000-0  42079-4 0  9996
2 22671  63.1730 331.5696 4826546 355.9019   1.3264  5.62602200307997
MOLNIYA 1-87            
1 22949U 93079A   20110.37482706  .00001283  00000-0  00000-0 0  9999
2 22949  63.3839 178.9217 6843829 289.3073  12.1932  2.02864116193277
MOLNIYA 1-88            
1 23420U 94081A   20111.73856235 -.00000052  00000-0 -26556-2 0  9992
2 23420  64.0883  19.0131 6028979 294.6885  15.4733  3.34494386220595
MOLNIYA 3-47            
1 23642U 95042A   20109.49510656 -.00000059  00000-0  76647-1 0  9991
2 23642  63.2230 162.5054 6831163 288.5493  12.4543  2.01930704181088
MOLNIYA 1-90            
1 24960U 97054A   20109.91689358 -.00000035  00000-0 -27285-3 0  9994
2 24960  63.4268 353.3692 6384037 300.6191  11.7888  3.18685204182926
MOLNIYA 1-91            
1 25485U 98054A   20111.49142033 -.00000108  00000-0  11646-3 0  9992
2 25485  62.8035 283.3638 7129639 288.5775  10.5319  2.36440276159752
MOLNIYA 3-50            
1 25847U 99036A   20112.02480589  .00000427  00000-0 -48574-3 0  9990
2 25847  62.2700 100.6198 7335317 274.9815  12.8220  2.00654190152320
